{"type": "FeatureCollection", "features": [ {"type": "Feature", "properties": {"norad_id": 60453, "name": "LEGION 4", "group": "resource", "lat": 10.725721978547439, "lon": 103.88281173820897, "alt_km": 520.2099046026924, "timestamp": "2025-12-03T04:52:29.299369+00:00", "meta": {"OBJECT_NAME": "LEGION 4", "OBJECT_ID": "2024-146B", "EPOCH": "2025-12-02T19:19:00.373152", "MEAN_MOTION": 15.15649889, "ECCENTRICITY": 0.000987, "INCLINATION": 45.0377, "RA_OF_ASC_NODE": 95.1052, "ARG_OF_PERICENTER": 259.4402, "MEAN_ANOMALY": 100.5366, "EPHEMERIS_TYPE": 0, "CLASSIFICATION_TYPE": "U", "NORAD_CAT_ID": 60453, "ELEMENT_SET_NO": 999, "REV_AT_EPOCH": 7107, "BSTAR": 0.00043943, "MEAN_MOTION_DOT": 8.253e-05, "MEAN_MOTION_DDOT": 0}, "tle": {"line1": "1 60453U 24146B   25336.80486543  .00008253  00000+0  43943-3 0  9995", "line2": "2 60453  45.0377  95.1052 0009870 259.4402 100.5366 15.15649889 71070"}}, "geometry": {"type": "Point", "coordinates": [103.88281173820897, 10.725721978547439]}}, {"type": "Feature", "properties": {"norad_id": 60989, "name": "SENTINEL-2C", "group": "resource", "lat": -48.4060370639329, "lon": -139.94708139123566, "alt_km": 796.3051910023296, "timestamp": "2025-12-03T04:52:29.299381+00:00", "meta": {"OBJECT_NAME": "SENTINEL-2C", "OBJECT_ID": "2024-157A", "EPOCH": "2025-12-02T19:24:57.724416", "MEAN_MOTION": 14.30823634, "ECCENTRICITY": 0.0001155, "INCLINATION": 98.5614, "RA_OF_ASC_NODE": 49.4358, "ARG_OF_PERICENTER": 102.0662, "MEAN_ANOMALY": 258.0651, "EPHEMERIS_TYPE": 0, "CLASSIFICATION_TYPE": "U", "NORAD_CAT_ID": 60989, "ELEMENT_SET_NO": 999, "REV_AT_EPOCH": 6490, "BSTAR": 9.6838e-05, "MEAN_MOTION_DOT": 2.1e-06, "MEAN_MOTION_DDOT": 0}, "tle": {"line1": "1 60989U 24157A   25336.80900144  .00000210  00000+0  96838-4 0  9996", "line2": "2 60989  98.5614  49.4358 0001155 102.0662 258.0651 14.30823634 64909"}}, "geometry": {"type": "Point", "coordinates": [-139.94708139123566, -48.4060370639329]}}, {"type": "Feature", "properties": {"norad_id": 61735, "name": "IONOSFERA-M 1", "group": "resource", "lat": 52.20152120467876, "lon": -164.31677848208523, "alt_km": 810.3451119891033, "timestamp": "2025-12-03T04:52:29.299391+00:00", "meta": {"OBJECT_NAME": "IONOSFERA-M 1", "OBJECT_ID": "2024-199A", "EPOCH": "2025-12-02T21:52:29.141760", "MEAN_MOTION": 14.2271044, "ECCENTRICITY": 0.0001395, "INCLINATION": 98.7409, "RA_OF_ASC_NODE": 206.8346, "ARG_OF_PERICENTER": 35.7353, "MEAN_ANOMALY": 324.3918, "EPHEMERIS_TYPE": 0, "CLASSIFICATION_TYPE": "U", "NORAD_CAT_ID": 61735, "ELEMENT_SET_NO": 999, "REV_AT_EPOCH": 9979, "BSTAR": 6.8099e-05, "MEAN_MOTION_DOT": 1.08e-06, "MEAN_MOTION_DDOT": 0}, "tle": {"line1": "1 61735U 24199A   25336.91144840  .00000108  00000+0  68099-4 0  9991", "line2": "2 61735  98.7409 206.8346 0001395  35.7353 324.3918 14.22710440 99793"}}, "geometry": {"type": "Point", "coordinates": [-164.31677848208523, 52.20152120467876]}}, {"type": "Feature", "properties": {"norad_id": 61736, "name": "IONOSFERA-M 2", "group": "resource", "lat": -54.846033004143635, "lon": 14.4175067074868, "alt_km": 823.5911405091765, "timestamp": "2025-12-03T04:52:29.299401+00:00", "meta": {"OBJECT_NAME": "IONOSFERA-M 2", "OBJECT_ID": "2024-199B", "EPOCH": "2025-12-02T21:01:07.366080", "MEAN_MOTION": 14.22712479, "ECCENTRICITY": 0.0001361, "INCLINATION": 98.7408, "RA_OF_ASC_NODE": 206.7118, "ARG_OF_PERICENTER": 122.3201, "MEAN_ANOMALY": 237.8109, "EPHEMERIS_TYPE": 0, "CLASSIFICATION_TYPE": "U", "NORAD_CAT_ID": 61736, "ELEMENT_SET_NO": 999, "REV_AT_EPOCH": 10291, "BSTAR": 6.4826e-05, "MEAN_MOTION_DOT": 1.01e-06, "MEAN_MOTION_DDOT": 0}, "tle": {"line1": "1 61736U 24199B   25336.87577970  .00000101  00000+0  64826-4 0  9998", "line2": "2 61736  98.7408 206.7118 0001361 122.3201 237.8109 14.22712479102910"}}, "geometry": {"type": "Point", "coordinates": [14.4175067074868, -54.846033004143635]}}, {"type": "Feature", "properties": {"norad_id": 63772, "name": "BIOMASS", "group": "resource", "lat": -27.9568901695083, "lon": 166.6697671561316, "alt_km": 675.0060202878049, "timestamp": "2025-12-03T04:52:29.299411+00:00", "meta": {"OBJECT_NAME": "BIOMASS", "OBJECT_ID": "2025-090A", "EPOCH": "2025-12-02T11:00:11.877120", "MEAN_MOTION": 14.67543778, "ECCENTRICITY": 0.00012102, "INCLINATION": 98.0707, "RA_OF_ASC_NODE": 161.6172, "ARG_OF_PERICENTER": 82.8919, "MEAN_ANOMALY": 277.2423, "EPHEMERIS_TYPE": 0, "CLASSIFICATION_TYPE": "U", "NORAD_CAT_ID": 63772, "ELEMENT_SET_NO": 999, "REV_AT_EPOCH": 3183, "BSTAR": 0.0003434806, "MEAN_MOTION_DOT": 1.9e-05, "MEAN_MOTION_DDOT": 0}, "tle": {"line1": "1 63772U 25090A   25336.45847080  .00001900  00000+0  34348-3 0  9990", "line2": "2 63772  98.0707 161.6172 0001210  82.8919 277.2423 14.67543778 31837"}}, "geometry": {"type": "Point", "coordinates": [166.6697671561316, -27.9568901695083]}}, {"type": "Feature", "properties": {"norad_id": 64694, "name": "GOSAT-GW (IBUKI GW)", "group": "resource", "lat": -0.670989520609517, "lon": 92.79358538700689, "alt_km": 672.2072829377648, "timestamp": "2025-12-03T04:52:29.299421+00:00", "meta": {"OBJECT_NAME": "GOSAT-GW (IBUKI GW)", "OBJECT_ID": "2025-141A", "EPOCH": "2025-11-30T05:41:32.267328", "MEAN_MOTION": 14.67567435, "ECCENTRICITY": 0.00014369, "INCLINATION": 98.0401, "RA_OF_ASC_NODE": 269.9775, "ARG_OF_PERICENTER": 82.921, "MEAN_ANOMALY": 277.2158, "EPHEMERIS_TYPE": 0, "CLASSIFICATION_TYPE": "U", "NORAD_CAT_ID": 64694, "ELEMENT_SET_NO": 999, "REV_AT_EPOCH": 2266, "BSTAR": 0.00019762357, "MEAN_MOTION_DOT": 1.074e-05, "MEAN_MOTION_DDOT": 0}, "tle": {"line1": "1 64694U 25141A   25334.23717902  .00001074  00000+0  19762-3 0  9999", "line2": "2 64694  98.0401 269.9775 0001436  82.9210 277.2158 14.67567435 22660"}}, "geometry": {"type": "Point", "coordinates": [92.79358538700689, -0.670989520609517]}}, {"type": "Feature", "properties": {"norad_id": 64876, "name": "IONOSFERA-M 3", "group": "resource", "lat": -35.81132105726848, "lon": -54.40884757301913, "alt_km": 827.351344225558, "timestamp": "2025-12-03T04:52:29.299431+00:00", "meta": {"OBJECT_NAME": "IONOSFERA-M 3", "OBJECT_ID": "2025-155A", "EPOCH": "2025-12-02T20:35:53.524896", "MEAN_MOTION": 14.21437049, "ECCENTRICITY": 0.000239, "INCLINATION": 98.5769, "RA_OF_ASC_NODE": 299.0047, "ARG_OF_PERICENTER": 75.2757, "MEAN_ANOMALY": 284.8685, "EPHEMERIS_TYPE": 0, "CLASSIFICATION_TYPE": "U", "NORAD_CAT_ID": 64876, "ELEMENT_SET_NO": 999, "REV_AT_EPOCH": 1851, "BSTAR": 7.7913e-05, "MEAN_MOTION_DOT": 1.28e-06, "MEAN_MOTION_DDOT": 0}, "tle": {"line1": "1 64876U 25155A   25336.85825839  .00000128  00000+0  77913-4 0  9997", "line2": "2 64876  98.5769 299.0047 0002390  75.2757 284.8685 14.21437049 18516"}}, "geometry": {"type": "Point", "coordinates": [-54.40884757301913, -35.81132105726848]}}, {"type": "Feature", "properties": {"norad_id": 64877, "name": "IONOSFERA-M 4", "group": "resource", "lat": 34.97120671245945, "lon": 125.31890860261746, "alt_km": 817.7290196182503, "timestamp": "2025-12-03T04:52:29.299442+00:00", "meta": {"OBJECT_NAME": "IONOSFERA-M 4", "OBJECT_ID": "2025-155B", "EPOCH": "2025-12-02T21:26:23.866656", "MEAN_MOTION": 14.21438057, "ECCENTRICITY": 0.000175, "INCLINATION": 98.5768, "RA_OF_ASC_NODE": 298.9585, "ARG_OF_PERICENTER": 73.5825, "MEAN_ANOMALY": 286.5545, "EPHEMERIS_TYPE": 0, "CLASSIFICATION_TYPE": "U", "NORAD_CAT_ID": 64877, "ELEMENT_SET_NO": 999, "REV_AT_EPOCH": 1851, "BSTAR": 7.3318e-05, "MEAN_MOTION_DOT": 1.18e-06, "MEAN_MOTION_DDOT": 0}, "tle": {"line1": "1 64877U 25155B   25336.89333179  .00000118  00000+0  73318-4 0  9997", "line2": "2 64877  98.5768 298.9585 0001750  73.5825 286.5545 14.21438057 18511"}}, "geometry": {"type": "Point", "coordinates": [125.31890860261746, 34.97120671245945]}}, {"type": "Feature", "properties": {"norad_id": 64899, "name": "MICROCARB", "group": "resource", "lat": 4.318661539277833, "lon": 52.092328191258545, "alt_km": 668.4367299147034, "timestamp": "2025-12-03T04:52:29.299464+00:00", "meta": {"OBJECT_NAME": "MICROCARB", "OBJECT_ID": "2025-156A", "EPOCH": "2025-12-02T19:03:59.958144", "MEAN_MOTION": 14.72029972, "ECCENTRICITY": 0.001649, "INCLINATION": 98.0035, "RA_OF_ASC_NODE": 52.299, "ARG_OF_PERICENTER": 175.6581, "MEAN_ANOMALY": 184.4772, "EPHEMERIS_TYPE": 0, "CLASSIFICATION_TYPE": "U", "NORAD_CAT_ID": 64899, "ELEMENT_SET_NO": 999, "REV_AT_EPOCH": 1907, "BSTAR": 0.00017428, "MEAN_MOTION_DOT": 1.047e-05, "MEAN_MOTION_DDOT": 0}, "tle": {"line1": "1 64899U 25156A   25336.79444396  .00001047  00000+0  17428-3 0  9996", "line2": "2 64899  98.0035  52.2990 0016490 175.6581 184.4772 14.72029972 19076"}}, "geometry": {"type": "Point", "coordinates": [52.092328191258545, 4.318661539277833]}}, {"type": "Feature", "properties": {"norad_id": 64900, "name": "CO3D 3", "group": "resource", "lat": 77.06575394602974, "lon": 16.775408879513893, "alt_km": 487.75452151533773, "timestamp": "2025-12-03T04:52:29.299483+00:00", "meta": {"OBJECT_NAME": "CO3D 3", "OBJECT_ID": "2025-156B", "EPOCH": "2025-11-29T13:08:11.122944", "MEAN_MOTION": 15.11495615, "ECCENTRICITY": 0.01368669, "INCLINATION": 97.6723, "RA_OF_ASC_NODE": 49.0485, "ARG_OF_PERICENTER": 160.1625, "MEAN_ANOMALY": 200.5002, "EPHEMERIS_TYPE": 0, "CLASSIFICATION_TYPE": "U", "NORAD_CAT_ID": 64900, "ELEMENT_SET_NO": 999, "REV_AT_EPOCH": 1920, "BSTAR": 0.00046350794, "MEAN_MOTION_DOT": 9.779e-05, "MEAN_MOTION_DDOT": 0}, "tle": {"line1": "1 64900U 25156B   25333.54735096  .00009779  00000+0  46351-3 0  9996", "line2": "2 64900  97.6723  49.0485 0136866 160.1625 200.5002 15.11495615 19205"}}, "geometry": {"type": "Point", "coordinates": [16.775408879513893, 77.06575394602974]}}]}